{"type": "FeatureCollection", "features": [ {"type": "Feature", "properties": {"norad_id": 39122, "name": "EUTELSAT 117 WEST A", "group": "eutelsat", "lat": 0.030099972221432382, "lon": 92.57633951708611, "alt_km": 35797.687563594074, "timestamp": "2025-12-24T07:45:05.870083+00:00", "meta": {"OBJECT_NAME": "EUTELSAT 117 WEST A", "OBJECT_ID": "2013-012A", "EPOCH": "2025-12-23T16:00:05.299200", "MEAN_MOTION": 1.00270813, "ECCENTRICITY": 0.00026851, "INCLINATION": 0.0226, "RA_OF_ASC_NODE": 313.4585, "ARG_OF_PERICENTER": 321.6945, "MEAN_ANOMALY": 300.5313, "EPHEMERIS_TYPE": 0, "CLASSIFICATION_TYPE": "U", "NORAD_CAT_ID": 39122, "ELEMENT_SET_NO": 999, "REV_AT_EPOCH": 4667, "BSTAR": 0, "MEAN_MOTION_DOT": 8e-08, "MEAN_MOTION_DDOT": 0}, "tle": {"line1": "1 39122U 13012A   25357.66672800  .00000008  00000+0  00000+0 0  9997", "line2": "2 39122   0.0226 313.4585 0002685 321.6945 300.5313  1.00270813 46679"}}, "geometry": {"type": "Point", "coordinates": [92.57633951708611, 0.030099972221432382]}}, {"type": "Feature", "properties": {"norad_id": 39163, "name": "EUTELSAT 7B", "group": "eutelsat", "lat": -0.042163136214986414, "lon": -143.68987773859718, "alt_km": 35791.34994417765, "timestamp": "2025-12-24T07:45:05.870096+00:00", "meta": {"OBJECT_NAME": "EUTELSAT 7B", "OBJECT_ID": "2013-022A", "EPOCH": "2025-12-23T21:43:32.557152", "MEAN_MOTION": 1.00271477, "ECCENTRICITY": 0.00045213, "INCLINATION": 0.0654, "RA_OF_ASC_NODE": 6.9021, "ARG_OF_PERICENTER": 315.5375, "MEAN_ANOMALY": 103.1266, "EPHEMERIS_TYPE": 0, "CLASSIFICATION_TYPE": "U", "NORAD_CAT_ID": 39163, "ELEMENT_SET_NO": 999, "REV_AT_EPOCH": 4619, "BSTAR": 0, "MEAN_MOTION_DOT": 6.9e-07, "MEAN_MOTION_DDOT": 0}, "tle": {"line1": "1 39163U 13022A   25357.90523793  .00000069  00000+0  00000+0 0  9993", "line2": "2 39163   0.0654   6.9021 0004521 315.5375 103.1266  1.00271477 46196"}}, "geometry": {"type": "Point", "coordinates": [-143.68987773859718, -0.042163136214986414]}}, {"type": "Feature", "properties": {"norad_id": 39612, "name": "EXPRESS-AT1", "group": "eutelsat", "lat": -0.016089597897217214, "lon": -94.62820001237947, "alt_km": 35789.411559152286, "timestamp": "2025-12-24T07:45:05.870108+00:00", "meta": {"OBJECT_NAME": "EXPRESS-AT1", "OBJECT_ID": "2014-010A", "EPOCH": "2025-12-23T20:45:38.572128", "MEAN_MOTION": 1.0027104, "ECCENTRICITY": 9.385e-05, "INCLINATION": 0.0153, "RA_OF_ASC_NODE": 287.9402, "ARG_OF_PERICENTER": 194.834, "MEAN_ANOMALY": 337.2835, "EPHEMERIS_TYPE": 0, "CLASSIFICATION_TYPE": "U", "NORAD_CAT_ID": 39612, "ELEMENT_SET_NO": 999, "REV_AT_EPOCH": 4306, "BSTAR": 0, "MEAN_MOTION_DOT": 1e-06, "MEAN_MOTION_DDOT": 0}, "tle": {"line1": "1 39612U 14010A   25357.86502977  .00000100  00000+0  00000+0 0  9992", "line2": "2 39612   0.0153 287.9402 0000938 194.8340 337.2835  1.00271040 43062"}}, "geometry": {"type": "Point", "coordinates": [-94.62820001237947, -0.016089597897217214]}}, {"type": "Feature", "properties": {"norad_id": 39613, "name": "EXPRESS-AT2", "group": "eutelsat", "lat": 0.0033651771591417076, "lon": -10.752592033761347, "alt_km": 35783.082122024876, "timestamp": "2025-12-24T07:45:05.870119+00:00", "meta": {"OBJECT_NAME": "EXPRESS-AT2", "OBJECT_ID": "2014-010B", "EPOCH": "2025-12-23T22:21:28.924992", "MEAN_MOTION": 1.00273151, "ECCENTRICITY": 0.00015219, "INCLINATION": 0.0121, "RA_OF_ASC_NODE": 303.6739, "ARG_OF_PERICENTER": 340.0413, "MEAN_ANOMALY": 284.2312, "EPHEMERIS_TYPE": 0, "CLASSIFICATION_TYPE": "U", "NORAD_CAT_ID": 39613, "ELEMENT_SET_NO": 999, "REV_AT_EPOCH": 4274, "BSTAR": 0, "MEAN_MOTION_DOT": -2.6e-06, "MEAN_MOTION_DDOT": 0}, "tle": {"line1": "1 39613U 14010B   25357.93158478 -.00000260  00000+0  00000+0 0  9992", "line2": "2 39613   0.0121 303.6739 0001521 340.0413 284.2312  1.00273151 42742"}}, "geometry": {"type": "Point", "coordinates": [-10.752592033761347, 0.0033651771591417076]}}, {"type": "Feature", "properties": {"norad_id": 39773, "name": "EUTELSAT 3B", "group": "eutelsat", "lat": -0.052988933453962814, "lon": -147.53827989646402, "alt_km": 35768.70402027454, "timestamp": "2025-12-24T07:45:05.870145+00:00", "meta": {"OBJECT_NAME": "EUTELSAT 3B", "OBJECT_ID": "2014-030A", "EPOCH": "2025-12-23T21:42:25.165152", "MEAN_MOTION": 1.00272581, "ECCENTRICITY": 0.00043092, "INCLINATION": 0.0612, "RA_OF_ASC_NODE": 346.8553, "ARG_OF_PERICENTER": 244.7582, "MEAN_ANOMALY": 189.7879, "EPHEMERIS_TYPE": 0, "CLASSIFICATION_TYPE": "U", "NORAD_CAT_ID": 39773, "ELEMENT_SET_NO": 999, "REV_AT_EPOCH": 4231, "BSTAR": 0, "MEAN_MOTION_DOT": 4.1e-07, "MEAN_MOTION_DDOT": 0}, "tle": {"line1": "1 39773U 14030A   25357.90445793  .00000041  00000+0  00000+0 0  9993", "line2": "2 39773   0.0612 346.8553 0004309 244.7582 189.7879  1.00272581 42317"}}, "geometry": {"type": "Point", "coordinates": [-147.53827989646402, -0.052988933453962814]}}, {"type": "Feature", "properties": {"norad_id": 40425, "name": "EUTELSAT 115 WEST B", "group": "eutelsat", "lat": -0.008662805182693025, "lon": 94.44649532481687, "alt_km": 35786.779623308015, "timestamp": "2025-12-24T07:45:05.870164+00:00", "meta": {"OBJECT_NAME": "EUTELSAT 115 WEST B", "OBJECT_ID": "2015-010B", "EPOCH": "2025-12-23T12:35:11.985792", "MEAN_MOTION": 1.00271081, "ECCENTRICITY": 1.668e-05, "INCLINATION": 0.0089, "RA_OF_ASC_NODE": 154.9718, "ARG_OF_PERICENTER": 161.1699, "MEAN_ANOMALY": 210.0501, "EPHEMERIS_TYPE": 0, "CLASSIFICATION_TYPE": "U", "NORAD_CAT_ID": 40425, "ELEMENT_SET_NO": 999, "REV_AT_EPOCH": 3963, "BSTAR": 0, "MEAN_MOTION_DOT": -4e-08, "MEAN_MOTION_DDOT": 0}, "tle": {"line1": "1 40425U 15010B   25357.52444428 -.00000004  00000+0  00000+0 0  9990", "line2": "2 40425   0.0089 154.9718 0000166 161.1699 210.0501  1.00271081 39635"}}, "geometry": {"type": "Point", "coordinates": [94.44649532481687, -0.008662805182693025]}}, {"type": "Feature", "properties": {"norad_id": 40875, "name": "EUTELSAT 8 WEST B", "group": "eutelsat", "lat": -0.02109019961854173, "lon": -158.68041791375092, "alt_km": 35780.74617911728, "timestamp": "2025-12-24T07:45:05.870178+00:00", "meta": {"OBJECT_NAME": "EUTELSAT 8 WEST B", "OBJECT_ID": "2015-039B", "EPOCH": "2025-12-23T21:39:17.964000", "MEAN_MOTION": 1.00271245, "ECCENTRICITY": 0.00042387, "INCLINATION": 0.0639, "RA_OF_ASC_NODE": 6.2561, "ARG_OF_PERICENTER": 267.262, "MEAN_ANOMALY": 135.9909, "EPHEMERIS_TYPE": 0, "CLASSIFICATION_TYPE": "U", "NORAD_CAT_ID": 40875, "ELEMENT_SET_NO": 999, "REV_AT_EPOCH": 3789, "BSTAR": 0, "MEAN_MOTION_DOT": -4.5e-07, "MEAN_MOTION_DDOT": 0}, "tle": {"line1": "1 40875U 15039B   25357.90229125 -.00000045  00000+0  00000+0 0  9992", "line2": "2 40875   0.0639   6.2561 0004238 267.2620 135.9909  1.00271245 37891"}}, "geometry": {"type": "Point", "coordinates": [-158.68041791375092, -0.02109019961854173]}}, {"type": "Feature", "properties": {"norad_id": 41310, "name": "EUTELSAT 9B", "group": "eutelsat", "lat": -0.00752325167528226, "lon": -141.6583432276057, "alt_km": 35774.17693410139, "timestamp": "2025-12-24T07:45:05.870190+00:00", "meta": {"OBJECT_NAME": "EUTELSAT 9B", "OBJECT_ID": "2016-005A", "EPOCH": "2025-12-23T21:44:02.508576", "MEAN_MOTION": 1.00272805, "ECCENTRICITY": 0.00045039, "INCLINATION": 0.0224, "RA_OF_ASC_NODE": 37.3402, "ARG_OF_PERICENTER": 233.5602, "MEAN_ANOMALY": 156.8118, "EPHEMERIS_TYPE": 0, "CLASSIFICATION_TYPE": "U", "NORAD_CAT_ID": 41310, "ELEMENT_SET_NO": 999, "REV_AT_EPOCH": 3635, "BSTAR": 0, "MEAN_MOTION_DOT": 8.3e-07, "MEAN_MOTION_DDOT": 0}, "tle": {"line1": "1 41310U 16005A   25357.90558459  .00000083  00000+0  00000+0 0  9997", "line2": "2 41310   0.0224  37.3402 0004503 233.5602 156.8118  1.00272805 36353"}}, "geometry": {"type": "Point", "coordinates": [-141.6583432276057, -0.00752325167528226]}}, {"type": "Feature", "properties": {"norad_id": 41382, "name": "EUTELSAT 65 WEST A", "group": "eutelsat", "lat": 0.02759544626725163, "lon": 144.16700984849194, "alt_km": 35792.164974237065, "timestamp": "2025-12-24T07:45:05.870202+00:00", "meta": {"OBJECT_NAME": "EUTELSAT 65 WEST A", "OBJECT_ID": "2016-014A", "EPOCH": "2025-12-23T19:40:14.366208", "MEAN_MOTION": 1.00272538, "ECCENTRICITY": 0.00022199, "INCLINATION": 0.0497, "RA_OF_ASC_NODE": 340.4081, "ARG_OF_PERICENTER": 295.3715, "MEAN_ANOMALY": 46.7011, "EPHEMERIS_TYPE": 0, "CLASSIFICATION_TYPE": "U", "NORAD_CAT_ID": 41382, "ELEMENT_SET_NO": 999, "REV_AT_EPOCH": 3577, "BSTAR": 0, "MEAN_MOTION_DOT": -2.55e-06, "MEAN_MOTION_DDOT": 0}, "tle": {"line1": "1 41382U 16014A   25357.81961072 -.00000255  00000+0  00000+0 0  9997", "line2": "2 41382   0.0497 340.4081 0002219 295.3715  46.7011  1.00272538 35775"}}, "geometry": {"type": "Point", "coordinates": [144.16700984849194, 0.02759544626725163]}}, {"type": "Feature", "properties": {"norad_id": 41589, "name": "EUTELSAT 117 WEST B", "group": "eutelsat", "lat": -0.006637455563693872, "lon": 92.35189920015934, "alt_km": 35787.761826018344, "timestamp": "2025-12-24T07:45:05.870214+00:00", "meta": {"OBJECT_NAME": "EUTELSAT 117 WEST B", "OBJECT_ID": "2016-038B", "EPOCH": "2025-12-23T11:38:38.460768", "MEAN_MOTION": 1.00269065, "ECCENTRICITY": 2.68e-05, "INCLINATION": 0.0101, "RA_OF_ASC_NODE": 152.0489, "ARG_OF_PERICENTER": 153.5082, "MEAN_ANOMALY": 204.3674, "EPHEMERIS_TYPE": 0, "CLASSIFICATION_TYPE": "U", "NORAD_CAT_ID": 41589, "ELEMENT_SET_NO": 999, "REV_AT_EPOCH": 3490, "BSTAR": 0, "MEAN_MOTION_DOT": 1e-07, "MEAN_MOTION_DDOT": 0}, "tle": {"line1": "1 41589U 16038B   25357.48516737  .00000010  00000+0  00000+0 0  9997", "line2": "2 41589   0.0101 152.0489 0000268 153.5082 204.3674  1.00269065 34901"}}, "geometry": {"type": "Point", "coordinates": [92.35189920015934, -0.006637455563693872]}}]}